DUPLEX                  
1 66906U 98067XS  26100.47961525  .00033267  00000+0  43386-3 0  9992
2 66906  51.6285 270.1904 0003640 268.6573  91.4002 15.58379565 20089
ISS OBJECT XT           
1 66907U 98067XT  26100.48714640  .00337626  00000+0  14311-2 0  9999
2 66907  51.6205 261.9258 0008852 287.8570  72.1468 15.83816881 20191
ISS OBJECT XU           
1 66908U 98067XU  26100.48055208  .00332256  00000+0  13804-2 0  9998
2 66908  51.6202 261.8770 0008838 286.1619  73.8411 15.84251880 20196
SILVERSAT               
1 66909U 98067XV  26100.43950928  .00673989  19966-3  17492-2 0  9990
2 66909  51.6163 260.0698 0011496 294.8572  65.1239 15.94347971 20214
ISS OBJECT XW           
1 66910U 98067XW  26100.44722853  .00291744  00000+0  14101-2 0  9991
2 66910  51.6197 262.4029 0008658 282.3991  77.6042 15.81131569 20186
ISS OBJECT XX           
1 66911U 98067XX  26100.47401911  .03277748  11857-4  16574-2 0  9998
2 66911  51.6062 257.2206 0014018 301.0012  58.9628 16.19642199 20244
ISS OBJECT XY           
1 66912U 98067XY  26100.46705867  .00131525  00000+0  10169-2 0  9991
2 66912  51.6249 265.5848 0005791 279.6456  80.3887 15.70951506 20131
KNACKSAT-2              
1 67683U 98067XZ  26100.51204741  .00037364  00000+0  55757-3 0  9997
2 67683  51.6308 273.4089 0011082 304.9574  55.0375 15.54621922  9733
CORAL                   
1 67684U 98067YA  26100.46843788  .00100441  00000+0  11926-2 0  9998
2 67684  51.6283 272.3664 0014476 296.4092  63.5415 15.60251614  9747
GXIBA-1                 
1 67685U 98067YB  26100.49698037  .00046956  00000+0  67973-3 0  9991
2 67685  51.6298 273.3077 0012978 301.7603  58.2124 15.55320220  9737
UITMSAT-2               
1 67686U 98067YC  26100.47321470  .00062376  00000+0  85810-3 0  9998
2 67686  51.6302 273.1526 0010004 279.0459  80.9401 15.56616679  9732
HMU-SAT2                
1 67687U 98067YD  26100.50414113  .00040653  00000+0  59751-3 0  9999
2 67687  51.6323 273.3604 0009454 280.0950  79.8974 15.55016141  9650
LEOPARD                 
1 67688U 98067YE  26100.48405466  .00056156  00000+0  79112-3 0  9996
2 67688  51.6297 273.2249 0009653 279.1268  80.8631 15.56023576  9650
CREW DRAGON 12          
1 67796U 26031A   26100.52154889  .00006547  00000+0  12746-3 0  9992
2 67796  51.6328 274.9695 0006412 295.7162  64.3164 15.48861768561289
PROGRESS-MS 33          
1 68319U 26058A   26100.52154889  .00006547  00000+0  12746-3 0  9993
2 68319  51.6328 274.9695 0006412 295.7162  64.3164 15.48861768  2797
