[{"OBJECT_NAME":"DUPLEX","OBJECT_ID":"1998-067XS","EPOCH":"2026-04-10T11:30:38.757600","MEAN_MOTION":15.58379565,"ECCENTRICITY":0.000364,"INCLINATION":51.6285,"RA_OF_ASC_NODE":270.1904,"ARG_OF_PERICENTER":268.6573,"MEAN_ANOMALY":91.4002,"EPHEMERIS_TYPE":0,"CLASSIFICATION_TYPE":"U","NORAD_CAT_ID":66906,"ELEMENT_SET_NO":999,"REV_AT_EPOCH":2008,"BSTAR":0.00043386,"MEAN_MOTION_DOT":0.00033267,"MEAN_MOTION_DDOT":0},{"OBJECT_NAME":"ISS OBJECT XT","OBJECT_ID":"1998-067XT","EPOCH":"2026-04-10T11:41:29.448960","MEAN_MOTION":15.83816881,"ECCENTRICITY":0.0008852,"INCLINATION":51.6205,"RA_OF_ASC_NODE":261.9258,"ARG_OF_PERICENTER":287.857,"MEAN_ANOMALY":72.1468,"EPHEMERIS_TYPE":0,"CLASSIFICATION_TYPE":"U","NORAD_CAT_ID":66907,"ELEMENT_SET_NO":999,"REV_AT_EPOCH":2019,"BSTAR":0.0014311,"MEAN_MOTION_DOT":0.00337626,"MEAN_MOTION_DDOT":0},{"OBJECT_NAME":"ISS OBJECT XU","OBJECT_ID":"1998-067XU","EPOCH":"2026-04-10T11:31:59.699712","MEAN_MOTION":15.8425188,"ECCENTRICITY":0.0008838,"INCLINATION":51.6202,"RA_OF_ASC_NODE":261.877,"ARG_OF_PERICENTER":286.1619,"MEAN_ANOMALY":73.8411,"EPHEMERIS_TYPE":0,"CLASSIFICATION_TYPE":"U","NORAD_CAT_ID":66908,"ELEMENT_SET_NO":999,"REV_AT_EPOCH":2019,"BSTAR":0.0013804,"MEAN_MOTION_DOT":0.00332256,"MEAN_MOTION_DDOT":0},{"OBJECT_NAME":"SILVERSAT","OBJECT_ID":"1998-067XV","EPOCH":"2026-04-10T10:32:53.601792","MEAN_MOTION":15.94347971,"ECCENTRICITY":0.0011496,"INCLINATION":51.6163,"RA_OF_ASC_NODE":260.0698,"ARG_OF_PERICENTER":294.8572,"MEAN_ANOMALY":65.1239,"EPHEMERIS_TYPE":0,"CLASSIFICATION_TYPE":"U","NORAD_CAT_ID":66909,"ELEMENT_SET_NO":999,"REV_AT_EPOCH":2021,"BSTAR":0.0017492,"MEAN_MOTION_DOT":0.00673989,"MEAN_MOTION_DDOT":0.00019966},{"OBJECT_NAME":"ISS OBJECT XW","OBJECT_ID":"1998-067XW","EPOCH":"2026-04-10T10:44:00.544992","MEAN_MOTION":15.81131569,"ECCENTRICITY":0.0008658,"INCLINATION":51.6197,"RA_OF_ASC_NODE":262.4029,"ARG_OF_PERICENTER":282.3991,"MEAN_ANOMALY":77.6042,"EPHEMERIS_TYPE":0,"CLASSIFICATION_TYPE":"U","NORAD_CAT_ID":66910,"ELEMENT_SET_NO":999,"REV_AT_EPOCH":2018,"BSTAR":0.0014101,"MEAN_MOTION_DOT":0.00291744,"MEAN_MOTION_DDOT":0},{"OBJECT_NAME":"ISS OBJECT XX","OBJECT_ID":"1998-067XX","EPOCH":"2026-04-10T11:22:35.251104","MEAN_MOTION":16.19642199,"ECCENTRICITY":0.0014018,"INCLINATION":51.6062,"RA_OF_ASC_NODE":257.2206,"ARG_OF_PERICENTER":301.0012,"MEAN_ANOMALY":58.9628,"EPHEMERIS_TYPE":0,"CLASSIFICATION_TYPE":"U","NORAD_CAT_ID":66911,"ELEMENT_SET_NO":999,"REV_AT_EPOCH":2024,"BSTAR":0.0016574,"MEAN_MOTION_DOT":0.03277748,"MEAN_MOTION_DDOT":1.1857e-5},{"OBJECT_NAME":"ISS OBJECT XY","OBJECT_ID":"1998-067XY","EPOCH":"2026-04-10T11:12:33.869088","MEAN_MOTION":15.70951506,"ECCENTRICITY":0.0005791,"INCLINATION":51.6249,"RA_OF_ASC_NODE":265.5848,"ARG_OF_PERICENTER":279.6456,"MEAN_ANOMALY":80.3887,"EPHEMERIS_TYPE":0,"CLASSIFICATION_TYPE":"U","NORAD_CAT_ID":66912,"ELEMENT_SET_NO":999,"REV_AT_EPOCH":2013,"BSTAR":0.0010169,"MEAN_MOTION_DOT":0.00131525,"MEAN_MOTION_DDOT":0},{"OBJECT_NAME":"KNACKSAT-2","OBJECT_ID":"1998-067XZ","EPOCH":"2026-04-10T12:17:20.896224","MEAN_MOTION":15.54621922,"ECCENTRICITY":0.0011082,"INCLINATION":51.6308,"RA_OF_ASC_NODE":273.4089,"ARG_OF_PERICENTER":304.9574,"MEAN_ANOMALY":55.0375,"EPHEMERIS_TYPE":0,"CLASSIFICATION_TYPE":"U","NORAD_CAT_ID":67683,"ELEMENT_SET_NO":999,"REV_AT_EPOCH":973,"BSTAR":0.00055757,"MEAN_MOTION_DOT":0.00037364,"MEAN_MOTION_DDOT":0},{"OBJECT_NAME":"CORAL","OBJECT_ID":"1998-067YA","EPOCH":"2026-04-10T11:14:33.032832","MEAN_MOTION":15.60251614,"ECCENTRICITY":0.0014476,"INCLINATION":51.6283,"RA_OF_ASC_NODE":272.3664,"ARG_OF_PERICENTER":296.4092,"MEAN_ANOMALY":63.5415,"EPHEMERIS_TYPE":0,"CLASSIFICATION_TYPE":"U","NORAD_CAT_ID":67684,"ELEMENT_SET_NO":999,"REV_AT_EPOCH":974,"BSTAR":0.0011926,"MEAN_MOTION_DOT":0.00100441,"MEAN_MOTION_DDOT":0},{"OBJECT_NAME":"GXIBA-1","OBJECT_ID":"1998-067YB","EPOCH":"2026-04-10T11:55:39.103968","MEAN_MOTION":15.5532022,"ECCENTRICITY":0.0012978,"INCLINATION":51.6298,"RA_OF_ASC_NODE":273.3077,"ARG_OF_PERICENTER":301.7603,"MEAN_ANOMALY":58.2124,"EPHEMERIS_TYPE":0,"CLASSIFICATION_TYPE":"U","NORAD_CAT_ID":67685,"ELEMENT_SET_NO":999,"REV_AT_EPOCH":973,"BSTAR":0.00067973,"MEAN_MOTION_DOT":0.00046956,"MEAN_MOTION_DDOT":0},{"OBJECT_NAME":"UITMSAT-2","OBJECT_ID":"1998-067YC","EPOCH":"2026-04-10T11:21:25.750080","MEAN_MOTION":15.56616679,"ECCENTRICITY":0.0010004,"INCLINATION":51.6302,"RA_OF_ASC_NODE":273.1526,"ARG_OF_PERICENTER":279.0459,"MEAN_ANOMALY":80.9401,"EPHEMERIS_TYPE":0,"CLASSIFICATION_TYPE":"U","NORAD_CAT_ID":67686,"ELEMENT_SET_NO":999,"REV_AT_EPOCH":973,"BSTAR":0.0008581,"MEAN_MOTION_DOT":0.00062376,"MEAN_MOTION_DDOT":0},{"OBJECT_NAME":"HMU-SAT2","OBJECT_ID":"1998-067YD","EPOCH":"2026-04-10T12:05:57.793632","MEAN_MOTION":15.55016141,"ECCENTRICITY":0.0009454,"INCLINATION":51.6323,"RA_OF_ASC_NODE":273.3604,"ARG_OF_PERICENTER":280.095,"MEAN_ANOMALY":79.8974,"EPHEMERIS_TYPE":0,"CLASSIFICATION_TYPE":"U","NORAD_CAT_ID":67687,"ELEMENT_SET_NO":999,"REV_AT_EPOCH":965,"BSTAR":0.00059751,"MEAN_MOTION_DOT":0.00040653,"MEAN_MOTION_DDOT":0},{"OBJECT_NAME":"LEOPARD","OBJECT_ID":"1998-067YE","EPOCH":"2026-04-10T11:37:02.322624","MEAN_MOTION":15.56023576,"ECCENTRICITY":0.0009653,"INCLINATION":51.6297,"RA_OF_ASC_NODE":273.2249,"ARG_OF_PERICENTER":279.1268,"MEAN_ANOMALY":80.8631,"EPHEMERIS_TYPE":0,"CLASSIFICATION_TYPE":"U","NORAD_CAT_ID":67688,"ELEMENT_SET_NO":999,"REV_AT_EPOCH":965,"BSTAR":0.00079112,"MEAN_MOTION_DOT":0.00056156,"MEAN_MOTION_DDOT":0},{"OBJECT_NAME":"CREW DRAGON 12","OBJECT_ID":"2026-031A","EPOCH":"2026-04-10T12:31:01.824096","MEAN_MOTION":15.48861768,"ECCENTRICITY":0.0006412,"INCLINATION":51.6328,"RA_OF_ASC_NODE":274.9695,"ARG_OF_PERICENTER":295.7162,"MEAN_ANOMALY":64.3164,"EPHEMERIS_TYPE":0,"CLASSIFICATION_TYPE":"U","NORAD_CAT_ID":67796,"ELEMENT_SET_NO":999,"REV_AT_EPOCH":56128,"BSTAR":0.00012746,"MEAN_MOTION_DOT":6.547e-5,"MEAN_MOTION_DDOT":0},{"OBJECT_NAME":"PROGRESS-MS 33","OBJECT_ID":"2026-058A","EPOCH":"2026-04-10T12:31:01.824096","MEAN_MOTION":15.48861768,"ECCENTRICITY":0.0006412,"INCLINATION":51.6328,"RA_OF_ASC_NODE":274.9695,"ARG_OF_PERICENTER":295.7162,"MEAN_ANOMALY":64.3164,"EPHEMERIS_TYPE":0,"CLASSIFICATION_TYPE":"U","NORAD_CAT_ID":68319,"ELEMENT_SET_NO":999,"REV_AT_EPOCH":279,"BSTAR":0.00012746,"MEAN_MOTION_DOT":6.547e-5,"MEAN_MOTION_DDOT":0}]
